{"fetched_at":"2026-03-29T16:36:15Z","count":15609,"tles":[{"name":"STARLINK-32423","line1":"1 61218U 24171U   26087.66543342  .00002446  00000+0  94718-4 0  9997","line2":"2 61218  53.1598 234.3078 0001204  94.2348 265.8791 15.30188038 86183","category":"Starlink"}]}