{
  "norad_id": 61218,
  "name": "STARLINK-32423",
  "history": [
    {
      "epoch": "2026-03-28T15:58:13.447488",
      "apogee_km": 476.07593391726823,
      "perigee_km": 474.42563813839297,
      "latitude_deg": 4.411017547551754,
      "longitude_deg": 5.681608320213854,
      "semi_major_axis_km": 6853.387786027831,
      "eccentricity": 0.0001204,
      "inclination_deg": 53.1598,
      "raan_deg": 234.3078,
      "arg_perigee_deg": 94.2348,
      "mean_anomaly_deg": 265.8791,
      "mean_motion_rev_day": 15.30188038
    }
  ]
}